[{"OBJECT_NAME":"ICESAT-2","OBJECT_ID":"2018-070A","EPOCH":"2026-03-09T22:54:12.225888","MEAN_MOTION":15.28328617,"ECCENTRICITY":0.00038245,"INCLINATION":91.9993,"RA_OF_ASC_NODE":264.2397,"ARG_OF_PERICENTER":123.8941,"MEAN_ANOMALY":236.2673,"EPHEMERIS_TYPE":0,"CLASSIFICATION_TYPE":"U","NORAD_CAT_ID":43613,"ELEMENT_SET_NO":999,"REV_AT_EPOCH":41730,"BSTAR":0.00014022643,"MEAN_MOTION_DOT":3.87e-5,"MEAN_MOTION_DDOT":0},{"OBJECT_NAME":"STARLINK-30778","OBJECT_ID":"2023-167H","EPOCH":"2026-03-09T06:42:40.120992","MEAN_MOTION":15.26749004,"ECCENTRICITY":0.00012543,"INCLINATION":42.9999,"RA_OF_ASC_NODE":145.6013,"ARG_OF_PERICENTER":255.6078,"MEAN_ANOMALY":104.4634,"EPHEMERIS_TYPE":0,"CLASSIFICATION_TYPE":"U","NORAD_CAT_ID":58182,"ELEMENT_SET_NO":999,"REV_AT_EPOCH":13092,"BSTAR":5.7361494e-5,"MEAN_MOTION_DOT":1.28e-5,"MEAN_MOTION_DDOT":0}]
